COSMOS 2425 (716)       
1 29670U 06062A   17331.13654287  .00000002  00000-0  10000-3 0  9995
2 29670  65.3821 299.3629 0021708 338.6674 245.3917  2.13104925 85007
COSMOS 2426 (717)       
1 29671U 06062B   17331.28092830  .00000002  00000-0  10000-3 0  9992
2 29671  65.3988 299.4515 0017359 173.7388  18.2479  2.13103036 85017
COSMOS 2433 (720)       
1 32275U 07052A   17331.09755813 -.00000036  00000-0  10000-3 0  9990
2 32275  65.5906  60.1506 0002945 236.1637 149.8379  2.13104767 78522
COSMOS 2432 (719)       
1 32276U 07052B   17330.69632074 -.00000035  00000-0  10000-3 0  9998
2 32276  65.6029  60.2377 0009919 332.8268  57.8322  2.13103857 78513
COSMOS 2434 (721)       
1 32393U 07065A   17331.31972252  .00000000  00000-0  00000+0 0  9993
2 32393  64.9969 298.4281 0001873 140.5786 304.6734  2.13103102 77238
COSMOS 2436 (723)       
1 32395U 07065C   17331.20563854  .00000001  00000-0  10000-3 0  9993
2 32395  65.0057 298.4802 0014858 349.9123  57.3168  2.13104244 77169
COSMOS 2456 (730)       
1 36111U 09070A   17330.66116847  .00000093  00000-0  00000+0 0  9992
2 36111  64.1801 178.0229 0003434 340.8445 130.8547  2.13102960 61880
COSMOS 2457 (733)       
1 36112U 09070B   17330.57765644  .00000092  00000-0  00000-0 0  9998
2 36112  64.1609 177.9419 0006769 151.7065  23.7591  2.13101673 61886
COSMOS 2458 (734)       
1 36113U 09070C   17331.38622954  .00000102  00000-0  10000-3 0  9991
2 36113  64.1662 177.9236 0002761  53.5071  70.3752  2.13101908 61908
COSMOS 2459 (731)       
1 36400U 10007A   17331.12321468 -.00000037  00000-0  10000-3 0  9998
2 36400  65.4995  59.2350 0025759 352.1870 274.1621  2.13102084 60247
COSMOS 2461 (735)       
1 36401U 10007B   17330.78122293 -.00000037  00000-0  10000-3 0  9995
2 36401  65.4927  59.2228 0006473  79.7682 194.8255  2.13101990 60237
COSMOS 2460 (732)       
1 36402U 10007C   17331.05892082 -.00000037  00000-0  10000-3 0  9997
2 36402  65.4834  59.1853 0001143 164.6954   3.9304  2.13101660 60243
COSMOS 2464 (736)       
1 37139U 10041C   17330.58070601  .00000001  00000-0  00000+0 0  9990
2 37139  64.6020 298.3607 0022632   5.8401 100.2042  2.13102643 56306
COSMOS 2471 (701K)      
1 37372U 11009A   17331.28708856 -.00000038  00000-0  00000+0 0  9993
2 37372  65.4803  59.1240 0008666 227.1708 256.1252  2.13107699 52529
COSMOS 2474 (742)       
1 37829U 11055A   17331.13808880  .00000098  00000-0  00000+0 0  9998
2 37829  64.5031 178.6396 0006585 242.2876  94.3373  2.13101912 47881
COSMOS 2476 (744)       
1 37867U 11064A   17330.70176449  .00000093  00000-0  00000+0 0  9996
2 37867  64.4841 178.7218 0016157 239.8190 168.0502  2.13101937 47231
COSMOS 2477 (745)       
1 37868U 11064B   17330.85079256  .00000095  00000-0  00000-0 0  9994
2 37868  64.4906 178.7641 0013959 240.9426 100.3042  2.13101817 47185
COSMOS 2475 (743)       
1 37869U 11064C   17330.67739300  .00000093  00000-0  00000-0 0  9996
2 37869  64.4992 178.7610 0018306 270.1446 254.6434  2.13102143 47197
COSMOS 2485 (747)       
1 39155U 13019A   17331.10524888  .00000098  00000-0  00000+0 0  9994
2 39155  64.6532 178.7740 0016663 234.1880 168.1999  2.13101991 35719
COSMOS 2492 (754)       
1 39620U 14012A   17330.91493453 -.00000037  00000-0  10000-3 0  9995
2 39620  65.3736  59.1032 0013371 328.0717 322.7657  2.13103393 28653
COSMOS 2500 (755)       
1 40001U 14032A   17331.30006653 -.00000038  00000-0  00000+0 0  9994
2 40001  65.3141  59.0757 0007132 200.3263 248.6736  2.13102657 26886
COSMOS 2501 (702K)      
1 40315U 14075A   17331.46170286 -.00000002  00000-0  00000+0 0  9991
2 40315  64.3271 299.6133 0016422 213.8342 163.1751  2.13098504 23291
COSMOS 2514 (751)       
1 41330U 16008A   17330.67619666 -.00000037  00000-0  00000+0 0  9997
2 41330  65.1151  59.2004 0010324 211.3607 299.4349  2.13103314 14038
COSMOS 2516 (753)       
1 41554U 16032A   17330.82673934  .00000001  00000-0  00000+0 0  9997
2 41554  64.5478 299.4456 0014003 227.7326 290.3717  2.13101648 11648
COSMOS 2522 (752)       
1 42939U 17055A   17330.65680639  .00000002  00000-0  00000+0 0  9993
2 42939  64.7778 299.3589 0010003 252.9747   1.1282  2.13101884  1398
